OBJECT_NAME,OBJECT_ID,EPOCH,MEAN_MOTION,ECCENTRICITY,INCLINATION,RA_OF_ASC_NODE,ARG_OF_PERICENTER,MEAN_ANOMALY,EPHEMERIS_TYPE,CLASSIFICATION_TYPE,NORAD_CAT_ID,ELEMENT_SET_NO,REV_AT_EPOCH,BSTAR,MEAN_MOTION_DOT,MEAN_MOTION_DDOT
DUBAISAT-1,2009-041B,2026-07-02T19:49:21.583200,14.75150633,.0010873,98.0072,316.9139,27.8847,332.2942,0,U,35682,999,90740,.16835229E-3,.1086E-4,0
OCEANSAT-2,2009-051A,2026-07-03T15:23:30.249312,13.99658903,.00165379,98.2318,169.8504,187.1303,172.9631,0,U,35931,999,88163,-.1144452E-3,-.205E-5,0
WORLDVIEW-2 (WV-2),2009-055A,2026-07-02T19:41:43.340928,14.37904128,.00046986,98.4762,257.0566,161.0407,199.0956,0,U,35946,999,87789,.68834292E-4,.164E-5,0
SMOS,2009-059A,2026-07-02T18:09:21.849696,14.39781159,.00013056,98.4426,10.8633,87.1942,272.9395,0,U,36036,999,87569,.10644789E-3,.29E-5,0
YAOGAN-7,2009-069A,2026-07-02T15:49:47.178912,14.78025724,.00244371,98.0051,69.4298,352.8193,7.2664,0,U,36110,999,89191,.87168726E-4,.579E-5,0
TANDEM-X,2010-030A,2026-07-01T14:48:18.164160,15.19152803,.00017924,97.4457,190.1177,96.8129,263.3310,0,U,36605,999,88883,.31705549E-4,.599E-5,0
CARTOSAT-2B,2010-035A,2026-07-03T13:55:56.347392,14.78607735,.00121397,97.9942,235.0255,132.6358,227.5878,0,U,36795,999,86227,.20119388E-3,.1422E-4,0
YAOGAN-10,2010-038A,2026-07-03T16:01:58.959264,14.85401128,.00017606,97.8967,207.9410,81.6521,58.0235,0,U,36834,999,85965,.22406089E-3,.1876E-4,0
COSMO-SKYMED 4,2010-060A,2026-07-03T15:30:38.191104,14.82156872,.00014448,97.8885,8.0069,83.8195,276.3183,0,U,37216,999,84700,-.3028193E-5,-.76E-6,0
RESOURCESAT-2,2011-015A,2026-07-02T18:49:31.211328,14.21603694,.0010849,98.7638,251.1180,206.9048,153.1567,0,U,37387,999,78839,.71195802E-4,.112E-5,0
HAIYANG-2A,2011-043A,2026-07-03T06:36:14.288832,13.73851911,.0004319,99.3392,186.5890,60.1769,299.9809,0,U,37781,999,74886,.16466271E-3,.111E-5,0
RASAT,2011-044D,2026-07-03T14:39:14.268384,14.68183387,.00214161,98.0584,275.7572,137.3555,328.0924,0,U,37791,999,79559,.13909984E-3,.754E-5,0
SRMSAT,2011-058D,2026-07-02T13:30:11.390112,14.11578853,.0011821,19.9731,326.4081,13.5504,59.6043,0,U,37841,999,75999,.72828E-4,.399E-5,0
PLEIADES 1A,2011-076F,2026-07-03T14:22:02.279136,14.58541980,.00017881,98.1975,259.4811,86.3307,19.8409,0,U,38012,999,77438,.12677255E-3,.543E-5,0
ZIYUAN 1-02C (ZY 1-02C),2011-079A,2026-07-03T17:06:27.947808,14.38228611,.00051289,98.4066,251.6760,256.6389,216.4048,0,U,38038,999,76158,.20166863E-3,.57E-5,0
ARIRANG-3 (KOMPSAT-3),2012-025B,2026-07-03T15:52:13.230336,14.62221204,.0006729,98.1179,141.8376,68.3287,291.8631,0,U,38338,999,75375,.11408427E-3,.528E-5,0
EXACTVIEW-1 (ADS-1B),2012-039C,2026-07-02T19:53:17.038752,14.24989404,.00118113,98.9796,301.5734,123.9603,236.2700,0,U,38709,999,72493,.88218798E-4,.16E-5,0
SPOT 6,2012-047A,2026-07-03T15:53:46.553568,14.58533420,.00012458,98.2114,251.7784,77.1859,282.9480,0,U,38755,999,73545,.13040132E-3,.56E-5,0
PLEIADES 1B,2012-068A,2026-07-03T16:20:40.699104,14.58571469,.00016997,98.1945,259.5057,82.6291,277.5102,0,U,39019,999,72325,.1238801E-3,.53E-5,0
GOKTURK 2,2012-073A,2026-07-03T16:40:39.103392,14.75558112,.00010017,97.6808,21.2979,63.8646,296.2667,0,U,39030,999,72694,.31650305E-4,.169E-5,0
LANDSAT 8,2013-008A,2026-07-02T19:39:09.223200,14.57105324,.00013517,98.2296,253.7681,93.5087,266.6266,0,U,39084,999,70017,.10048063E-3,.407E-5,0
SARAL,2013-009A,2026-07-02T19:44:34.487232,14.32893194,.00009571,98.5552,10.1920,206.8269,153.2866,0,U,39086,999,69784,-.4226029E-5,-.55E-6,0
GAOFEN-1,2013-018A,2026-07-03T15:59:02.914944,14.76507932,.00160387,97.9091,256.3991,209.2860,150.7453,0,U,39150,999,71067,.89744168E-4,.575E-5,0
VNREDSAT 1,2013-021B,2026-07-03T16:30:03.777408,14.64875019,.00016982,97.9069,237.4702,80.5562,279.5834,0,U,39160,999,70270,.16130357E-3,.816E-5,0
ARIRANG-5 (KOMPSAT-5),2013-042A,2026-07-03T15:50:40.479072,15.04547405,.0005225,97.6203,11.1276,82.9201,277.2619,0,U,39227,999,70633,.16127669E-3,.22E-4,0
SKYSAT-A,2013-066C,2026-07-02T14:25:01.007040,15.13058802,.00197204,97.3803,232.5070,259.8177,100.0830,0,U,39418,999,69081,.19977165E-3,.3484E-4,0
DUBAISAT-2,2013-066D,2026-07-03T16:49:41.284992,15.10305603,.00105127,97.4572,174.4141,346.7967,13.2986,0,U,39419,999,68888,.20009657E-3,.3219E-4,0
GPM-CORE,2014-009C,2026-07-02T17:56:09.258432,15.44894510,.00112432,64.9710,256.0031,257.8826,102.1056,0,U,39574,999,70021,.22558944E-3,.1044E-3,0
SENTINEL-1A,2014-016A,2026-07-03T14:51:13.902624,14.59200174,.00013694,98.1775,191.9116,84.1607,275.9749,0,U,39634,999,65241,.32615778E-4,.108E-5,0
KAZEOSAT 1,2014-024A,2026-07-03T16:10:30.851616,14.42087143,.00011599,98.3203,256.7114,76.8734,283.2585,0,U,39731,999,64093,.12045733E-3,.353E-5,0
