DUBAISAT-1              
1 35682U 09041B   26183.82594425  .00001086  00000+0  16835-3 0  9997
2 35682  98.0072 316.9139 0010873  27.8847 332.2942 14.75150633907409
OCEANSAT-2              
1 35931U 09051A   26184.64132233 -.00000205  00000+0 -11445-3 0  9997
2 35931  98.2318 169.8504 0016537 187.1303 172.9631 13.99658903881630
WORLDVIEW-2 (WV-2)      
1 35946U 09055A   26183.82064052  .00000164  00000+0  68834-4 0  9996
2 35946  98.4762 257.0566 0004698 161.0407 199.0956 14.37904128877899
SMOS                    
1 36036U 09059A   26183.75650289  .00000290  00000+0  10645-3 0  9992
2 36036  98.4426  10.8633 0001305  87.1942 272.9395 14.39781159875694
YAOGAN-7                
1 36110U 09069A   26183.65957383  .00000579  00000+0  87169-4 0  9996
2 36110  98.0051  69.4298 0024437 352.8193   7.2664 14.78025724891918
TANDEM-X                
1 36605U 10030A   26182.61687690  .00000599  00000+0  31706-4 0  9999
2 36605  97.4457 190.1177 0001792  96.8129 263.3310 15.19152803888836
CARTOSAT-2B             
1 36795U 10035A   26184.58051328  .00001422  00000+0  20119-3 0  9996
2 36795  97.9942 235.0255 0012139 132.6358 227.5878 14.78607735862270
YAOGAN-10               
1 36834U 10038A   26184.66804351  .00001876  00000+0  22406-3 0  9998
2 36834  97.8967 207.9410 0001760  81.6521  58.0235 14.85401128859652
COSMO-SKYMED 4          
1 37216U 10060A   26184.64627536 -.00000076  00000+0 -30282-5 0  9990
2 37216  97.8885   8.0069 0001444  83.8195 276.3183 14.82156872847009
RESOURCESAT-2           
1 37387U 11015A   26183.78438902  .00000112  00000+0  71196-4 0  9998
2 37387  98.7638 251.1180 0010849 206.9048 153.1567 14.21603694788399
HAIYANG-2A              
1 37781U 11043A   26184.27516538  .00000111  00000+0  16466-3 0  9991
2 37781  99.3392 186.5890 0004319  60.1769 299.9809 13.73851911748864
RASAT                   
1 37791U 11044D   26184.61058181  .00000754  00000+0  13910-3 0  9990
2 37791  98.0584 275.7572 0021416 137.3555 328.0924 14.68183387795593
SRMSAT                  
1 37841U 11058D   26183.56263183  .00000399  00000+0  72828-4 0  9993
2 37841  19.9731 326.4081 0011821  13.5504  59.6043 14.11578853759999
PLEIADES 1A             
1 38012U 11076F   26184.59863749  .00000543  00000+0  12677-3 0  9998
2 38012  98.1975 259.4811 0001788  86.3307  19.8409 14.58541980774381
ZIYUAN 1-02C (ZY 1-02C) 
1 38038U 11079A   26184.71282347  .00000570  00000+0  20167-3 0  9995
2 38038  98.4066 251.6760 0005128 256.6389 216.4048 14.38228611761587
ARIRANG-3 (KOMPSAT-3)   
1 38338U 12025B   26184.66126424  .00000528  00000+0  11408-3 0  9998
2 38338  98.1179 141.8376 0006729  68.3287 291.8631 14.62221204753751
EXACTVIEW-1 (ADS-1B)    
1 38709U 12039C   26183.82866943  .00000160  00000+0  88219-4 0  9996
2 38709  98.9796 301.5734 0011811 123.9603 236.2700 14.24989404724936
SPOT 6                  
1 38755U 12047A   26184.66234437  .00000560  00000+0  13040-3 0  9999
2 38755  98.2114 251.7784 0001245  77.1859 282.9480 14.58533420735450
PLEIADES 1B             
1 39019U 12068A   26184.68102661  .00000530  00000+0  12388-3 0  9992
2 39019  98.1945 259.5057 0001699  82.6291 277.5102 14.58571469723259
GOKTURK 2               
1 39030U 12073A   26184.69489703  .00000169  00000+0  31650-4 0  9999
2 39030  97.6808  21.2979 0001001  63.8646 296.2667 14.75558112726945
LANDSAT 8               
1 39084U 13008A   26183.81885675  .00000407  00000+0  10048-3 0  9990
2 39084  98.2296 253.7681 0001351  93.5087 266.6266 14.57105324700177
SARAL                   
1 39086U 13009A   26183.82262138 -.00000055  00000+0 -42260-5 0  9991
2 39086  98.5552  10.1920 0000957 206.8269 153.2866 14.32893194697848
GAOFEN-1                
1 39150U 13018A   26184.66600596  .00000575  00000+0  89744-4 0  9992
2 39150  97.9091 256.3991 0016038 209.2860 150.7453 14.76507932710675
VNREDSAT 1              
1 39160U 13021B   26184.68754372  .00000816  00000+0  16130-3 0  9997
2 39160  97.9069 237.4702 0001698  80.5562 279.5834 14.64875019702705
ARIRANG-5 (KOMPSAT-5)   
1 39227U 13042A   26184.66019073  .00002200  00000+0  16128-3 0  9990
2 39227  97.6203  11.1276 0005225  82.9201 277.2619 15.04547405706334
SKYSAT-A                
1 39418U 13066C   26183.60070610  .00003484  00000+0  19977-3 0  9995
2 39418  97.3803 232.5070 0019720 259.8177 100.0830 15.13058802690813
DUBAISAT-2              
1 39419U 13066D   26184.70117228  .00003219  00000+0  20010-3 0  9991
2 39419  97.4572 174.4141 0010512 346.7967  13.2986 15.10305603688886
GPM-CORE                
1 39574U 14009C   26183.74732938  .00010440  00000+0  22559-3 0  9999
2 39574  64.9710 256.0031 0011243 257.8826 102.1056 15.44894510700219
SENTINEL-1A             
1 39634U 14016A   26184.61891091  .00000108  00000+0  32616-4 0  9993
2 39634  98.1775 191.9116 0001369  84.1607 275.9749 14.59200174652411
KAZEOSAT 1              
1 39731U 14024A   26184.67396819  .00000353  00000+0  12046-3 0  9990
2 39731  98.3203 256.7114 0001159  76.8734 283.2585 14.42087143640936
